{
  "type": "FeatureCollection",
  "features": [
    {
      "type": "Feature",
      "properties": {
        "id": "Plantation_1"
      },
      "geometry": {
        "type": "Polygon",
        "coordinates": [
          [
            [-7.2396638431, 7.6913780998],
            [-7.2398434673, 7.6914929319],
            [-7.2398596443, 7.6915024873],
            [-7.2400370054, 7.6915397029],
            [-7.2401564475, 7.6916254498],
            [-7.2403525002, 7.6916614082],
            [-7.2403962538, 7.6916630846],
            [-7.2404752951, 7.691622097],
            [-7.2406012751, 7.6916089375],
            [-7.2406395804, 7.6916298084],
            [-7.2406767961, 7.6917381864],
            [-7.2406755388, 7.6918298006],
            [-7.2407311946, 7.691938011],
            [-7.2407612856, 7.6920722052],
            [-7.2408031113, 7.6921659987],
            [-7.2408220544, 7.6923010312],
            [-7.2408252396, 7.6923113409],
            [-7.2409279179, 7.6924839243],
            [-7.2409785446, 7.692573024],
            [-7.2410444263, 7.6926844195],
            [-7.2411336098, 7.6927824877],
            [-7.2411791235, 7.6928673964],
            [-7.2412180994, 7.6929740142],
            [-7.2413513716, 7.693163529],
            [-7.241452625, 7.6933312509],
            [-7.2415295709, 7.6935219392],
            [-7.2416087799, 7.6936686225],
            [-7.2416664474, 7.6938080974],
            [-7.2416601609, 7.6938941795],
            [-7.2416607477, 7.6939759869],
            [-7.2416633461, 7.6940589678],
            [-7.2416907549, 7.6941297948],
            [-7.2417011485, 7.6941750571],
            [-7.241711542, 7.6942191459],
            [-7.2417471651, 7.6942603849],
            [-7.2417990491, 7.6943122689],
            [-7.2417477518, 7.6943587884],
            [-7.2416681238, 7.6943654101],
            [-7.2415746655, 7.6943385042],
            [-7.2415648587, 7.6942939125],
            [-7.2415594943, 7.694250159],
            [-7.2415436525, 7.6941691898],
            [-7.2415393777, 7.6940601412],
            [-7.2415403835, 7.6939649228],
            [-7.2415399645, 7.6939414535],
            [-7.2415141482, 7.693931479],
            [-7.2413951252, 7.6939079259],
            [-7.2413430735, 7.6939718798],
            [-7.2412863281, 7.6940475684],
            [-7.2411828116, 7.6940596383],
            [-7.2411155887, 7.6940182317],
            [-7.2411084641, 7.6940098498],
            [-7.2410486173, 7.6939318143],
            [-7.2410499584, 7.6939230971],
            [-7.2409912851, 7.6939339936],
            [-7.2409867588, 7.6939427108],
            [-7.2409229726, 7.693976406],
            [-7.2408806439, 7.6940065809],
            [-7.2408238985, 7.6940969378],
            [-7.2407619562, 7.6940575428],
            [-7.2407581005, 7.6940480713],
            [-7.2407394089, 7.6940220036],
            [-7.2407120839, 7.6940089278],
            [-7.2406513989, 7.6939267851],
            [-7.2406214755, 7.6938102767],
            [-7.2405581083, 7.693684129],
            [-7.240544362, 7.6935823727],
            [-7.2405013628, 7.6934044249],
            [-7.2404150292, 7.6932264771],
            [-7.2403624747, 7.6931735035],
            [-7.2402853612, 7.6930326875],
            [-7.2402391769, 7.6929885149],
            [-7.2402200662, 7.6928514708],
            [-7.2402204853, 7.6928315219],
            [-7.240179833, 7.6927754469],
            [-7.2401415277, 7.6927396562],
            [-7.2400867101, 7.6925795618],
            [-7.2400142904, 7.6924389973],
            [-7.2399858758, 7.6922571938],
            [-7.239973722, 7.6922031306],
            [-7.2398654278, 7.6920017973],
            [-7.2398202494, 7.6918806788],
            [-7.2397692036, 7.691752268],
            [-7.2397021484, 7.6915743202],
            [-7.239630064, 7.6914309058],
            [-7.239658311, 7.6913792733],
            [-7.2396638431, 7.6913780998]
          ]
        ]
      }
    },
    {
      "type": "Feature",
      "properties": {
        "id": "Plantation_2"
      },
      "geometry": {
        "type": "Polygon",
        "coordinates": [
          [
            [-7.2489290312, 7.6890548039],
            [-7.2489877045, 7.6889768522],
            [-7.2490906343, 7.6889261417],
            [-7.249111589, 7.6889245491],
            [-7.2491229046, 7.6889160834],
            [-7.2491540853, 7.688895883],
            [-7.2491581086, 7.6888919435],
            [-7.2491756268, 7.6888851542],
            [-7.2492207214, 7.6888686419],
            [-7.2492670733, 7.6888561528],
            [-7.249304289, 7.688832432],
            [-7.2493363079, 7.6888134051],
            [-7.2493933886, 7.6888055261],
            [-7.2494751122, 7.6887326036],
            [-7.2494990006, 7.6887274068],
            [-7.2495635413, 7.6887176838],
            [-7.2495717555, 7.6887165103],
            [-7.2496420797, 7.6887278259],
            [-7.249685917, 7.6887629461],
            [-7.2497406509, 7.6888150815],
            [-7.2497510444, 7.688825978],
            [-7.249761438, 7.6888578292],
            [-7.2498326842, 7.6889005769],
            [-7.2498665471, 7.6889139041],
            [-7.2499242984, 7.6889444143],
            [-7.2499730811, 7.6889963821],
            [-7.2500514518, 7.6890312508],
            [-7.2500698082, 7.6890601683],
            [-7.2501020785, 7.6892012358],
            [-7.2501418926, 7.6893236116],
            [-7.2501515318, 7.6893946063],
            [-7.2501908429, 7.6894917525],
            [-7.2502288967, 7.6895900723],
            [-7.2502802778, 7.6897173095],
            [-7.2503204271, 7.689815294],
            [-7.2503016517, 7.6899726223],
            [-7.2503417172, 7.6900297031],
            [-7.2504442278, 7.6901157852],
            [-7.2505351715, 7.6901824214],
            [-7.2506028134, 7.6903267577],
            [-7.2506267019, 7.6903822459],
            [-7.2506096028, 7.6904226467],
            [-7.2505484149, 7.6905052084],
            [-7.2504910827, 7.6905645523],
            [-7.2504519392, 7.6906009298],
            [-7.2504485864, 7.6906250697],
            [-7.25037558, 7.6907368004],
            [-7.2502784338, 7.6908422448],
            [-7.2501692176, 7.690921789],
            [-7.2500776872, 7.6909752656],
            [-7.2499621008, 7.691021869],
            [-7.2498399764, 7.6910500322],
            [-7.2496996634, 7.6911010779],
            [-7.2496384755, 7.691184897],
            [-7.2496560775, 7.6912192628],
            [-7.2496848274, 7.6913324185],
            [-7.2495935485, 7.6914452389],
            [-7.2495042812, 7.691559149],
            [-7.2493760381, 7.6916060038],
            [-7.2492239065, 7.6916337479],
            [-7.249078732, 7.6915894076],
            [-7.2489861958, 7.6915227715],
            [-7.2488760576, 7.6914791856],
            [-7.2488055658, 7.6914406288],
            [-7.2487680148, 7.6914129686],
            [-7.2486858722, 7.6913623419],
            [-7.2486528475, 7.6913579833],
            [-7.2485189885, 7.6912893355],
            [-7.248493256, 7.6912708953],
            [-7.2484159749, 7.6911933627],
            [-7.2483534459, 7.6911555603],
            [-7.248250097, 7.6910832245],
            [-7.2481941059, 7.6910458412],
            [-7.2480943613, 7.6910006627],
            [-7.2479463369, 7.6908913627],
            [-7.2478218656, 7.6908311807],
            [-7.2476802953, 7.6908159256],
            [-7.2475672234, 7.6908392273],
            [-7.2474715021, 7.6909077074],
            [-7.2474603541, 7.69091391],
            [-7.2473316081, 7.6909315959],
            [-7.2472342104, 7.6909535564],
            [-7.2470892034, 7.6909784507],
            [-7.2470087372, 7.6910735015],
            [-7.246947214, 7.6911375392],
            [-7.2468765546, 7.6911448315],
            [-7.2467709426, 7.6912008226],
            [-7.2466371674, 7.6912347693],
            [-7.246544715, 7.6912613399],
            [-7.2464967705, 7.6912727393],
            [-7.2464926634, 7.6912433188],
            [-7.2464498319, 7.6911755931],
            [-7.2464204114, 7.6911212783],
            [-7.2463366762, 7.6910760999],
            [-7.246324271, 7.6910137385],
            [-7.2463063337, 7.6909786183],
            [-7.2463031486, 7.6909277402],
            [-7.2462852113, 7.6908969786],
            [-7.2462738957, 7.6908477768],
            [-7.2462505102, 7.6908253971],
            [-7.2462482471, 7.690769406],
            [-7.2462244425, 7.6907164324],
            [-7.2462141328, 7.6906738523],
            [-7.2461769171, 7.6906445995],
            [-7.2461122088, 7.6906009298],
            [-7.2460927628, 7.6905239839],
            [-7.2460254561, 7.6904529892],
            [-7.2459895816, 7.6903520711],
            [-7.246055631, 7.6903031208],
            [-7.2461179923, 7.6902902126],
            [-7.2461228538, 7.6902843453],
            [-7.246157052, 7.6901830919],
            [-7.2460482549, 7.6901187189],
            [-7.2459795233, 7.690062141],
            [-7.2459615022, 7.6900312118],
            [-7.2459311597, 7.6899722032],
            [-7.2458651103, 7.689900957],
            [-7.2458521184, 7.6898414455],
            [-7.245838372, 7.6897750609],
            [-7.2458678763, 7.6897449698],
            [-7.2458687145, 7.6897382643],
            [-7.2459308244, 7.6897002105],
            [-7.2460470814, 7.6896180678],
            [-7.2461828683, 7.6895593107],
            [-7.246281188, 7.6894568],
            [-7.2464239318, 7.6894635055],
            [-7.2465306334, 7.6894348394],
            [-7.2466278635, 7.6894041616],
            [-7.2467458807, 7.6893753279],
            [-7.2468737047, 7.6893411297],
            [-7.2469997685, 7.6893498469],
            [-7.247072272, 7.689377591],
            [-7.2471549176, 7.6893780101],
            [-7.2471610364, 7.6893810276],
            [-7.2472436819, 7.6894241106],
            [-7.2472661454, 7.6894190814],
            [-7.2472900338, 7.6894226018],
            [-7.2473271657, 7.6894475799],
            [-7.2473383136, 7.6894512679],
            [-7.247420121, 7.6894647628],
            [-7.2475394793, 7.6894666068],
            [-7.2475950513, 7.6895231847],
            [-7.2476640344, 7.6895547844],
            [-7.2476925328, 7.6895581372],
            [-7.24776797, 7.6895821095],
            [-7.2478176747, 7.6895899884],
            [-7.2479633521, 7.6896193251],
            [-7.2480582353, 7.6895938441],
            [-7.2481275536, 7.6896004658],
            [-7.2482162341, 7.689611027],
            [-7.2482340038, 7.6896061655],
            [-7.2482857201, 7.6895939279],
            [-7.2483676951, 7.6895320695],
            [-7.2484823596, 7.6894127112],
            [-7.2485730518, 7.6893500146],
            [-7.2486359999, 7.6892964542],
            [-7.2486539371, 7.6892712247],
            [-7.2487116884, 7.6892080251],
            [-7.2487173881, 7.6892045047],
            [-7.2488173004, 7.6891213562],
            [-7.2489198949, 7.6890066918],
            [-7.2489538416, 7.6889928617],
            [-7.2489290312, 7.6890548039]
          ]
        ]
      }
    },
    {
      "type": "Feature",
      "properties": {
        "id": "Plantation_3"
      },
      "geometry": {
        "type": "Polygon",
        "coordinates": [
          [
            [-7.2389679775, 7.689975556],
            [-7.2389657144, 7.6899666712],
            [-7.2389518842, 7.6899663359],
            [-7.2389406525, 7.6899701916],
            [-7.2389834002, 7.6898950059],
            [-7.2390133236, 7.6897562016],
            [-7.2390365414, 7.6896557026],
            [-7.239065459, 7.6895629149],
            [-7.2390421573, 7.6894742344],
            [-7.2390610166, 7.6893682871],
            [-7.2391238809, 7.6892203465],
            [-7.2391536366, 7.6891552191],
            [-7.2392170038, 7.6891486812],
            [-7.2392851487, 7.6891261339],
            [-7.2393449116, 7.6891033351],
            [-7.2394303232, 7.6890599169],
            [-7.2394962888, 7.6889975555],
            [-7.2395449039, 7.6889408939],
            [-7.2396226879, 7.6889743377],
            [-7.2396281362, 7.688982049],
            [-7.2397593129, 7.6889720745],
            [-7.2397749033, 7.68902882],
            [-7.2397805192, 7.6891156565],
            [-7.2397905774, 7.6891942788],
            [-7.2397959419, 7.6893369388],
            [-7.2397715505, 7.6894548722],
            [-7.2397765797, 7.6895348355],
            [-7.2397826985, 7.6896334905],
            [-7.2397979535, 7.6897284575],
            [-7.239783369, 7.6897562854],
            [-7.2397608217, 7.6898264419],
            [-7.2397418786, 7.6899646595],
            [-7.2397353407, 7.690008916],
            [-7.2397345025, 7.6900187228],
            [-7.2397047468, 7.6901685912],
            [-7.2397278808, 7.6902688388],
            [-7.2397173196, 7.690287279],
            [-7.2397191636, 7.6903177053],
            [-7.2397149727, 7.6903384086],
            [-7.2397114523, 7.6904762909],
            [-7.2397183254, 7.6906417497],
            [-7.2397130448, 7.6906685717],
            [-7.2397156432, 7.690716181],
            [-7.2396941017, 7.6907790452],
            [-7.2397065908, 7.6908144169],
            [-7.2396829538, 7.6909025107],
            [-7.2395439819, 7.6910350285],
            [-7.2395030782, 7.6911425684],
            [-7.2394330893, 7.6911462564],
            [-7.239357233, 7.6910668798],
            [-7.2392686363, 7.6910072844],
            [-7.2391312569, 7.6909633633],
            [-7.2390517127, 7.6909515448],
            [-7.239000164, 7.6909694821],
            [-7.2389836516, 7.6909700688],
            [-7.2389001679, 7.6908979006],
            [-7.2388583422, 7.6908353716],
            [-7.238850547, 7.6907645445],
            [-7.2388726752, 7.6906440128],
            [-7.2388849966, 7.6905658934],
            [-7.2388822306, 7.6905157696],
            [-7.2388879303, 7.6904151868],
            [-7.2389170155, 7.6902545057],
            [-7.2389523871, 7.690169597],
            [-7.2389747668, 7.6900877897],
            [-7.2389798798, 7.6900109276],
            [-7.2389704082, 7.689976478],
            [-7.2389679775, 7.689975556]
          ]
        ]
      }
    },
    {
      "type": "Feature",
      "properties": {
        "id": "Plantation_3"
      },
      "geometry": {
        "type": "Polygon",
        "coordinates": [
          [
            [-7.2344482876, 7.7019148227],
            [-7.2343839146, 7.7021226101],
            [-7.2343869321, 7.7021338418],
            [-7.2344193701, 7.7022894938],
            [-7.2343736049, 7.7024514321],
            [-7.2343187872, 7.7026079223],
            [-7.2342124209, 7.7028265223],
            [-7.2341445275, 7.7029131912],
            [-7.2339953296, 7.7029618062],
            [-7.2339415178, 7.7029680088],
            [-7.2338860296, 7.7030124329],
            [-7.2336831875, 7.7030336391],
            [-7.2335684393, 7.7030723635],
            [-7.2334778309, 7.7030825894],
            [-7.2332408745, 7.7031138539],
            [-7.2330546286, 7.703103628],
            [-7.2330021579, 7.7031150274],
            [-7.2328738309, 7.7031329647],
            [-7.2328272276, 7.7031057235],
            [-7.2327812109, 7.7029229142],
            [-7.2327460069, 7.702725688],
            [-7.23274827, 7.7026246022],
            [-7.2327529639, 7.7025043219],
            [-7.2328127269, 7.7023581415],
            [-7.23286964, 7.7022508532],
            [-7.2329259664, 7.7021257952],
            [-7.2330142278, 7.701969808],
            [-7.2330444865, 7.7019184269],
            [-7.2330532037, 7.701908201],
            [-7.2331724782, 7.7017606795],
            [-7.2332491726, 7.7015981544],
            [-7.2332743183, 7.7015502937],
            [-7.233277671, 7.7015380561],
            [-7.2333925869, 7.7013990842],
            [-7.233481938, 7.7012649737],
            [-7.2335812636, 7.7011279296],
            [-7.2336932458, 7.7009996865],
            [-7.2337925714, 7.700833641],
            [-7.2338873707, 7.7006853651],
            [-7.2338900529, 7.7006734628],
            [-7.2340082377, 7.7005110215],
            [-7.2340425197, 7.7003993746],
            [-7.2340302821, 7.700319076],
            [-7.2339389194, 7.7001357637],
            [-7.2339317948, 7.7000797726],
            [-7.2339204792, 7.7000214346],
            [-7.2337879613, 7.6998082828],
            [-7.2337790765, 7.6997860707],
            [-7.233745968, 7.6996541396],
            [-7.2337759752, 7.6996311732],
            [-7.2339144442, 7.699592365],
            [-7.2340316232, 7.6995723322],
            [-7.2340772208, 7.6995669678],
            [-7.2341283504, 7.6995383017],
            [-7.2341710981, 7.6995421574],
            [-7.2342430148, 7.6995870844],
            [-7.2343208827, 7.6996579114],
            [-7.2343477886, 7.6996823866],
            [-7.2344530653, 7.6998066064],
            [-7.2345191147, 7.6999414712],
            [-7.2345067095, 7.700017076],
            [-7.2344473656, 7.700143978],
            [-7.2345629521, 7.7003019769],
            [-7.2345737647, 7.7003541123],
            [-7.2346465196, 7.7004764043],
            [-7.2346622776, 7.7004993707],
            [-7.2347150836, 7.7006121073],
            [-7.2347605973, 7.7007178031],
            [-7.2348485235, 7.700818805],
            [-7.2348864935, 7.7009019535],
            [-7.2348879185, 7.700926261],
            [-7.234894624, 7.7009989321],
            [-7.2349414788, 7.7010964975],
            [-7.2348191869, 7.7011140995],
            [-7.234775098, 7.7011396643],
            [-7.2347388882, 7.7011786401],
            [-7.2346962243, 7.7013530675],
            [-7.2347364575, 7.7014680672],
            [-7.2347397264, 7.7014887705],
            [-7.234747773, 7.7015271597],
            [-7.2347349487, 7.7015539818],
            [-7.2346823942, 7.7016910259],
            [-7.2346525546, 7.7017123997],
            [-7.2346101422, 7.7017464302],
            [-7.2344917897, 7.7018340211],
            [-7.2344544064, 7.7019144874],
            [-7.2344482876, 7.7019148227]
          ]
        ]
      }
    },
    {
      "type": "Feature",
      "properties": {
        "id": "Plantation_3"
      },
      "geometry": {
        "type": "Polygon",
        "coordinates": [
          [
            [-7.26618720218539, 7.71516719833016],
            [-7.26616230793297, 7.71520625799894],
            [-7.26621352136135, 7.71516644395888],
            [-7.26642055436969, 7.71503769792616],
            [-7.26663060486317, 7.71493133157492],
            [-7.26690972223878, 7.71476486697793],
            [-7.26708297617733, 7.71474349312484],
            [-7.26710300892591, 7.71480920724571],
            [-7.26709638722241, 7.71489688195288],
            [-7.26720250211656, 7.71501816809177],
            [-7.26708959788084, 7.71503468044102],
            [-7.26700234226882, 7.71503132767975],
            [-7.26690360344946, 7.71506980061531],
            [-7.26677519269288, 7.71520743146539],
            [-7.26674627512693, 7.71532125771046],
            [-7.26666932925582, 7.71544815972447],
            [-7.26664317771792, 7.71546458825469],
            [-7.26661928929389, 7.71551320329309],
            [-7.26657612249255, 7.71552728489041],
            [-7.26651384495199, 7.71556693129241],
            [-7.26645207032561, 7.71562535315752],
            [-7.26638191379607, 7.71567245945334],
            [-7.26630882360041, 7.71570120938122],
            [-7.26630262099207, 7.71570020355284],
            [-7.2661935724318, 7.7157698571682],
            [-7.26612048223615, 7.71580279804766],
            [-7.26607446558774, 7.71576281636953],
            [-7.26602987386286, 7.71571394987404],
            [-7.26595049723983, 7.71567581221461],
            [-7.26590313948691, 7.71563633345068],
            [-7.26582669652999, 7.71563407033682],
            [-7.2658571228385, 7.71555343642831],
            [-7.26598243229091, 7.7153879776597],
            [-7.26608075201511, 7.71527867764235],
            [-7.26618720218539, 7.71516719833016]
          ]
        ]
      }
    }
  ]
}
